IRVINE01
1 70002U 18599A   18315.16151858  .00000000  00000-0  00000-0 0    07
2 70002  85.1205  90.1568 0012705 292.5520 107.9249 15.20792276    04
